PERSEUS-M1              
1 40039U 14033AF  26139.40087593  .00001242  00000+0  11741-3 0  9999
2 40039  97.9635  83.0654 0012674  39.4863 320.7279 14.95525884646339
POLYITAN-1              
1 40042U 14033AJ  26138.80415234  .00011817  00000+0  38317-3 0  9990
2 40042  98.0962 162.3101 0005696 240.0236 120.0439 15.32154281649092
TIGRISAT                
1 40043U 14033AK  26139.41314769  .00001319  00000+0  15761-3 0  9994
2 40043  97.7799 290.0931 0049800 167.5007 192.7456 14.85024588641350
AEROCUBE 6A             
1 40045U 14033AM  26139.43311205  .00002984  00000+0  25522-3 0  9995
2 40045  97.7224 306.6998 0040123 110.9849 249.5673 14.97759247642316
AEROCUBE 6B             
1 40046U 14033AN  26139.19625687  .00003816  00000+0  31360-3 0  9993
2 40046  97.7178 306.1952 0038576 105.0547 255.4949 14.99179016642414
CANX-4                  
1 40055U 14034C   26139.44234039  .00000528  00000+0  75098-4 0  9993
2 40055  98.3157  13.6959 0014104 102.2045 258.0746 14.81204890640274
CANX-5                  
1 40056U 14034D   26139.17089514  .00000549  00000+0  77793-4 0  9997
2 40056  98.3161  13.4562 0014094 103.1891 257.0894 14.81221742631048
UKUBE-1                 
1 40074U 14037F   26139.47140970  .00005617  00000+0  32216-3 0  9998
2 40074  98.4243 139.7395 0000450 134.6534 225.4731 15.13040231644210
BRITE-PL2 (HEWELIUSZ)   
1 40119U 14049B   26139.24915404  .00001400  00000+0  13507-3 0  9996
2 40119  97.9066 251.0338 0013642 200.1054 159.9630 14.94470930637127
AEROCUBE 5C             
1 40965U 15058B   26139.20235027  .00001881  00000+0  17572-3 0  9997
2 40965  64.7681 352.7496 0129933  74.6674 286.8754 14.91274358361335
AEROCUBE 7              
1 40966U 15058C   26139.54839192  .00002850  00000+0  23662-3 0  9992
2 40966  64.7625 334.5033 0119715  73.2066 288.2141 14.95485037361671
FOX-1A (AO-85)          
1 40967U 15058D   26139.37463816  .00001955  00000+0  18458-3 0  9992
2 40967  64.7764   8.5128 0129238  67.8967 293.5807 14.90784112109274
SINOD-D 1               
1 40968U 15058E   26139.19543948  .00002718  00000+0  22633-3 0  9996
2 40968  64.7760 349.6876 0117746  64.7204 296.6056 14.95660609112320
SNAP-3 ALICE            
1 40970U 15058G   26139.45985741  .00050711  00000+0  75706-3 0  9994
2 40970  64.7515 202.7449 0033385  26.7126 333.5727 15.54097802112414
LMRST-SAT               
1 40971U 15058H   26139.05426575  .00002210  00000+0  20778-3 0  9996
2 40971  64.7770   5.7913 0130979  70.0469 291.4696 14.90409081109210
SNAP-3 EDDIE            
1 40972U 15058J   26139.40757569  .00050614  00000+0  72380-3 0  9993
2 40972  64.7431 193.8551 0033699  30.4699 329.8393 15.55252562114542
PROPCUBE 3              
1 40973U 15058K   26139.56266809  .00002443  00000+0  21120-3 0  9996
2 40973  64.7689 341.9562 0123113  71.3337 290.1095 14.94045833110526
BISONSAT                
1 40974U 15058L   26139.33503896  .00006736  00000+0  33692-3 0  9998
2 40974  64.7603 266.8750 0078605  59.4887 301.3967 15.15560645111249
SNAP-3 JIMI             
1 40975U 15058M   26138.89593325  .00003981  00000+0  28176-3 0  9995
2 40975  64.7649 312.4251 0105068  67.5350 293.6852 15.01978122109828
PROPCUBE 1 (FLORA)      
1 40976U 15058N   26139.04955846  .00001880  00000+0  18603-3 0  9994
2 40976  64.7760  25.5297 0129777  72.3304 289.1927 14.89039864111924
SINOD-D 3               
1 40977U 15058P   26138.91998405  .00002892  00000+0  25181-3 0  9991
2 40977  64.7735   7.1960 0118241  69.8344 291.5442 14.93773336110381
HORYU-4                 
1 41340U 16012D   26139.44140116  .00134509  00000+0  68779-3 0  9995
2 41340  30.9887 287.3122 0004488  80.3168 279.7996 15.79800066566248
RAVAN                   
1 41849U 16067B   26139.24580171  .00028457  00000+0  47667-3 0  9993
2 41849  97.9929  25.5391 0007194 103.2439 256.9614 15.51802776523208
CELTEE 1                
1 41850U 16067C   26138.83734240  .00003660  00000+0  17676-3 0  9993
2 41850  98.0706   3.4044 0001513  56.9062 303.2316 15.19364275521428
OPTICUBE 04             
1 41851U 16067D   26139.51059160  .00001266  00000+0  83242-4 0  9994
2 41851  98.0725 350.2966 0014891 210.3383 149.6984 15.09524020520844
AEROCUBE 8D             
1 41852U 16067E   26139.13795150  .00004294  00000+0  18093-3 0  9994
2 41852  98.0715   7.1041 0002331 213.3170 146.7919 15.23949269521646
AEROCUBE 8C             
1 41853U 16067F   26139.56148405  .00004969  00000+0  20724-3 0  9990
2 41853  98.0584   4.8247 0006078 146.5508 213.6113 15.24193406521709
CORVUS BC2              
1 42846U 17042X   26139.42868804  .00001320  00000+0  94264-4 0  9993
2 42846  97.4041 301.9061 0012438 203.5411 156.5249 15.06089179482737
CORVUS BC1              
1 42847U 17042Y   26139.42656642  .00001310  00000+0  93162-4 0  9994
2 42847  97.4070 302.6991 0011951 179.2637 180.8610 15.06259726482760
MAKERSAT 0              
1 43016U 17073D   26139.16997089  .00015924  00000+0  44461-3 0  9994
2 43016  97.4662  21.4848 0110537  17.3797 343.1179 15.30786593462027
